{"type": "FeatureCollection", "features": [ {"type": "Feature", "properties": {"norad_id": 41836, "name": "HIMAWARI-9", "group": "weather", "lat": -0.01464527259507031, "lon": -148.0893870228618, "alt_km": 35790.40673157633, "timestamp": "2025-12-21T22:41:41.090901+00:00", "meta": {"OBJECT_NAME": "HIMAWARI-9", "OBJECT_ID": "2016-064A", "EPOCH": "2025-12-21T12:57:31.241088", "MEAN_MOTION": 1.00268672, "ECCENTRICITY": 0.00015498, "INCLINATION": 0.0165, "RA_OF_ASC_NODE": 17.3484, "ARG_OF_PERICENTER": 316.3268, "MEAN_ANOMALY": 91.8221, "EPHEMERIS_TYPE": 0, "CLASSIFICATION_TYPE": "U", "NORAD_CAT_ID": 41836, "ELEMENT_SET_NO": 999, "REV_AT_EPOCH": 3342, "BSTAR": 0, "MEAN_MOTION_DOT": 0, "MEAN_MOTION_DDOT": 0}, "tle": {"line1": "1 41836U 16064A   25355.53994492  .00000000  00000+0  00000+0 0  9992", "line2": "2 41836   0.0165  17.3484 0001549 316.3268  91.8221  1.00268672 33428"}}, "geometry": {"type": "Point", "coordinates": [-148.0893870228618, -0.01464527259507031]}}, {"type": "Feature", "properties": {"norad_id": 41866, "name": "GOES 16", "group": "weather", "lat": -0.06003679158306937, "lon": -33.470843164511884, "alt_km": 35780.91919367836, "timestamp": "2025-12-21T22:41:41.090914+00:00", "meta": {"OBJECT_NAME": "GOES 16", "OBJECT_ID": "2016-071A", "EPOCH": "2025-12-21T10:26:59.836128", "MEAN_MOTION": 1.00269386, "ECCENTRICITY": 0.00029693, "INCLINATION": 0.0699, "RA_OF_ASC_NODE": 104.2282, "ARG_OF_PERICENTER": 159.8912, "MEAN_ANOMALY": 238.2168, "EPHEMERIS_TYPE": 0, "CLASSIFICATION_TYPE": "U", "NORAD_CAT_ID": 41866, "ELEMENT_SET_NO": 999, "REV_AT_EPOCH": 3332, "BSTAR": 0, "MEAN_MOTION_DOT": -6.8e-07, "MEAN_MOTION_DDOT": 0}, "tle": {"line1": "1 41866U 16071A   25355.43541477 -.00000068  00000+0  00000+0 0  9998", "line2": "2 41866   0.0699 104.2282 0002969 159.8912 238.2168  1.00269386 33327"}}, "geometry": {"type": "Point", "coordinates": [-33.470843164511884, -0.06003679158306937]}}, {"type": "Feature", "properties": {"norad_id": 41882, "name": "FENGYUN 4A", "group": "weather", "lat": 1.7250349803981815, "lon": -165.14288844547616, "alt_km": 35771.33633500047, "timestamp": "2025-12-21T22:41:41.090927+00:00", "meta": {"OBJECT_NAME": "FENGYUN 4A", "OBJECT_ID": "2016-077A", "EPOCH": "2025-12-19T13:51:06.687072", "MEAN_MOTION": 1.00266581, "ECCENTRICITY": 0.0004506, "INCLINATION": 1.866, "RA_OF_ASC_NODE": 82.3247, "ARG_OF_PERICENTER": 142.8816, "MEAN_ANOMALY": 194.7423, "EPHEMERIS_TYPE": 0, "CLASSIFICATION_TYPE": "U", "NORAD_CAT_ID": 41882, "ELEMENT_SET_NO": 999, "REV_AT_EPOCH": 3312, "BSTAR": 0, "MEAN_MOTION_DOT": -3.34e-06, "MEAN_MOTION_DDOT": 0}, "tle": {"line1": "1 41882U 16077A   25353.57716073 -.00000334  00000+0  00000+0 0  9997", "line2": "2 41882   1.8660  82.3247 0004506 142.8816 194.7423  1.00266581 33125"}}, "geometry": {"type": "Point", "coordinates": [-165.14288844547616, 1.7250349803981815]}}, {"type": "Feature", "properties": {"norad_id": 41884, "name": "CYGFM05", "group": "weather", "lat": -34.77718343757687, "lon": -109.34624613347054, "alt_km": 417.44941472852497, "timestamp": "2025-12-21T22:41:41.090939+00:00", "meta": {"OBJECT_NAME": "CYGFM05", "OBJECT_ID": "2016-078A", "EPOCH": "2025-12-21T09:10:24.136320", "MEAN_MOTION": 15.47935175, "ECCENTRICITY": 0.00108426, "INCLINATION": 34.9606, "RA_OF_ASC_NODE": 350.6634, "ARG_OF_PERICENTER": 258.3827, "MEAN_ANOMALY": 101.5678, "EPHEMERIS_TYPE": 0, "CLASSIFICATION_TYPE": "U", "NORAD_CAT_ID": 41884, "ELEMENT_SET_NO": 999, "REV_AT_EPOCH": 50110, "BSTAR": 0.00031525581, "MEAN_MOTION_DOT": 0.00016973, "MEAN_MOTION_DDOT": 0}, "tle": {"line1": "1 41884U 16078A   25355.38222380  .00016973  00000+0  31526-3 0  9990", "line2": "2 41884  34.9606 350.6634 0010842 258.3827 101.5678 15.47935175501104"}}, "geometry": {"type": "Point", "coordinates": [-109.34624613347054, -34.77718343757687]}}, {"type": "Feature", "properties": {"norad_id": 41885, "name": "CYGFM04", "group": "weather", "lat": -28.154189264053148, "lon": -168.4529691134943, "alt_km": 412.3862144815166, "timestamp": "2025-12-21T22:41:41.090949+00:00", "meta": {"OBJECT_NAME": "CYGFM04", "OBJECT_ID": "2016-078B", "EPOCH": "2025-12-21T07:46:40.834272", "MEAN_MOTION": 15.50699821, "ECCENTRICITY": 0.00096573, "INCLINATION": 34.9356, "RA_OF_ASC_NODE": 325.5706, "ARG_OF_PERICENTER": 282.921, "MEAN_ANOMALY": 77.0434, "EPHEMERIS_TYPE": 0, "CLASSIFICATION_TYPE": "U", "NORAD_CAT_ID": 41885, "ELEMENT_SET_NO": 999, "REV_AT_EPOCH": 50127, "BSTAR": 0.00032492185, "MEAN_MOTION_DOT": 0.00019293, "MEAN_MOTION_DDOT": 0}, "tle": {"line1": "1 41885U 16078B   25355.32408373  .00019293  00000+0  32492-3 0  9994", "line2": "2 41885  34.9356 325.5706 0009657 282.9210  77.0434 15.50699821501273"}}, "geometry": {"type": "Point", "coordinates": [-168.4529691134943, -28.154189264053148]}}, {"type": "Feature", "properties": {"norad_id": 41886, "name": "CYGFM02", "group": "weather", "lat": -31.2804517247128, "lon": -100.77109443840061, "alt_km": 404.75267050382445, "timestamp": "2025-12-21T22:41:41.090960+00:00", "meta": {"OBJECT_NAME": "CYGFM02", "OBJECT_ID": "2016-078C", "EPOCH": "2025-12-21T07:32:12.876288", "MEAN_MOTION": 15.52104529, "ECCENTRICITY": 0.00113308, "INCLINATION": 34.9445, "RA_OF_ASC_NODE": 323.8504, "ARG_OF_PERICENTER": 283.548, "MEAN_ANOMALY": 76.3981, "EPHEMERIS_TYPE": 0, "CLASSIFICATION_TYPE": "U", "NORAD_CAT_ID": 41886, "ELEMENT_SET_NO": 999, "REV_AT_EPOCH": 50140, "BSTAR": 0.00033641994, "MEAN_MOTION_DOT": 0.00021032, "MEAN_MOTION_DDOT": 0}, "tle": {"line1": "1 41886U 16078C   25355.31403792  .00021032  00000+0  33642-3 0  9996", "line2": "2 41886  34.9445 323.8504 0011330 283.5480  76.3981 15.52104529501409"}}, "geometry": {"type": "Point", "coordinates": [-100.77109443840061, -31.2804517247128]}}, {"type": "Feature", "properties": {"norad_id": 41887, "name": "CYGFM01", "group": "weather", "lat": -17.37845756248246, "lon": -37.36317109629371, "alt_km": 419.6067379170281, "timestamp": "2025-12-21T22:41:41.090971+00:00", "meta": {"OBJECT_NAME": "CYGFM01", "OBJECT_ID": "2016-078D", "EPOCH": "2025-12-21T08:54:17.165664", "MEAN_MOTION": 15.485232, "ECCENTRICITY": 0.00105205, "INCLINATION": 34.9439, "RA_OF_ASC_NODE": 353.0252, "ARG_OF_PERICENTER": 251.1927, "MEAN_ANOMALY": 108.7653, "EPHEMERIS_TYPE": 0, "CLASSIFICATION_TYPE": "U", "NORAD_CAT_ID": 41887, "ELEMENT_SET_NO": 999, "REV_AT_EPOCH": 50104, "BSTAR": 0.00031476829, "MEAN_MOTION_DOT": 0.000173, "MEAN_MOTION_DDOT": 0}, "tle": {"line1": "1 41887U 16078D   25355.37103201  .00017300  00000+0  31477-3 0  9992", "line2": "2 41887  34.9439 353.0252 0010520 251.1927 108.7653 15.48523200501047"}}, "geometry": {"type": "Point", "coordinates": [-37.36317109629371, -17.37845756248246]}}, {"type": "Feature", "properties": {"norad_id": 41888, "name": "CYGFM08", "group": "weather", "lat": 28.851848717146716, "lon": 24.236121868704757, "alt_km": 417.9618403822469, "timestamp": "2025-12-21T22:41:41.090982+00:00", "meta": {"OBJECT_NAME": "CYGFM08", "OBJECT_ID": "2016-078E", "EPOCH": "2025-12-21T06:59:16.414080", "MEAN_MOTION": 15.49748097, "ECCENTRICITY": 0.0011942, "INCLINATION": 34.9467, "RA_OF_ASC_NODE": 336.439, "ARG_OF_PERICENTER": 273.0676, "MEAN_ANOMALY": 86.868, "EPHEMERIS_TYPE": 0, "CLASSIFICATION_TYPE": "U", "NORAD_CAT_ID": 41888, "ELEMENT_SET_NO": 999, "REV_AT_EPOCH": 50126, "BSTAR": 0.00032362, "MEAN_MOTION_DOT": 0.00018591, "MEAN_MOTION_DDOT": 0}, "tle": {"line1": "1 41888U 16078E   25355.29116220  .00018591  00000+0  32362-3 0  9996", "line2": "2 41888  34.9467 336.4390 0011942 273.0676  86.8680 15.49748097501264"}}, "geometry": {"type": "Point", "coordinates": [24.236121868704757, 28.851848717146716]}}, {"type": "Feature", "properties": {"norad_id": 41890, "name": "CYGFM07", "group": "weather", "lat": 31.164763845502822, "lon": 21.074008895371726, "alt_km": 414.22839516966815, "timestamp": "2025-12-21T22:41:41.090993+00:00", "meta": {"OBJECT_NAME": "CYGFM07", "OBJECT_ID": "2016-078G", "EPOCH": "2025-12-21T14:41:24.584640", "MEAN_MOTION": 15.50351743, "ECCENTRICITY": 0.0009938, "INCLINATION": 34.9486, "RA_OF_ASC_NODE": 323.2662, "ARG_OF_PERICENTER": 290.6458, "MEAN_ANOMALY": 69.3199, "EPHEMERIS_TYPE": 0, "CLASSIFICATION_TYPE": "U", "NORAD_CAT_ID": 41890, "ELEMENT_SET_NO": 999, "REV_AT_EPOCH": 50133, "BSTAR": 0.00032940124, "MEAN_MOTION_DOT": 0.00019319, "MEAN_MOTION_DDOT": 0}, "tle": {"line1": "1 41890U 16078G   25355.61209010  .00019319  00000+0  32940-3 0  9996", "line2": "2 41890  34.9486 323.2662 0009938 290.6458  69.3199 15.50351743501338"}}, "geometry": {"type": "Point", "coordinates": [21.074008895371726, 31.164763845502822]}}, {"type": "Feature", "properties": {"norad_id": 41891, "name": "CYGFM03", "group": "weather", "lat": -33.72804267649893, "lon": -144.02890519136886, "alt_km": 412.1071134312051, "timestamp": "2025-12-21T22:41:41.091003+00:00", "meta": {"OBJECT_NAME": "CYGFM03", "OBJECT_ID": "2016-078H", "EPOCH": "2025-12-21T07:41:09.975840", "MEAN_MOTION": 15.50235912, "ECCENTRICITY": 0.00096618, "INCLINATION": 34.9438, "RA_OF_ASC_NODE": 327.1045, "ARG_OF_PERICENTER": 275.8408, "MEAN_ANOMALY": 84.1213, "EPHEMERIS_TYPE": 0, "CLASSIFICATION_TYPE": "U", "NORAD_CAT_ID": 41891, "ELEMENT_SET_NO": 999, "REV_AT_EPOCH": 50126, "BSTAR": 0.00032821183, "MEAN_MOTION_DOT": 0.00019168, "MEAN_MOTION_DDOT": 0}, "tle": {"line1": "1 41891U 16078H   25355.32025435  .00019168  00000+0  32821-3 0  9992", "line2": "2 41891  34.9438 327.1045 0009661 275.8408  84.1213 15.50235912501260"}}, "geometry": {"type": "Point", "coordinates": [-144.02890519136886, -33.72804267649893]}}]}